IRIDIUM 119             
1 42959U 17061E   25248.26183647  .00000039  00000+0  67992-5 0  9991
2 42959  86.4017 144.3745 0001948  89.7803 270.3616 14.34217806413977
IRIDIUM 107             
1 42960U 17061F   25248.21110390  .00000405  00000+0  13741-3 0  9991
2 42960  86.4017 144.4151 0002286  95.6569 264.4887 14.34215483413975
IRIDIUM 132             
1 42961U 17061G   25247.17090730  .00000263  00000+0  87004-4 0  9997
2 42961  86.4018 144.8305 0002215  87.8305 272.3144 14.34219956413822
IRIDIUM 136             
1 42962U 17061H   25248.24915067  .00000071  00000+0  18324-4 0  9992
2 42962  86.4016 144.3860 0002059  90.4727 269.6705 14.34218199413994
IRIDIUM 139             
1 42963U 17061J   25248.18571865  .00000065  00000+0  16117-4 0  9991
2 42963  86.4018 144.4695 0002330  88.8230 271.3233 14.34217108413991
IRIDIUM 125             
1 42964U 17061K   25248.24280670  .00000380  00000+0  12867-3 0  9997
2 42964  86.4018 144.5015 0001942  99.6106 260.5309 14.34216807414012
IRIDIUM 135             
1 43070U 17083A   25247.58901647  .00000118  00000+0  34981-4 0  9991
2 43070  86.3905  81.4116 0002186  83.6910 276.4535 14.34218618403212
IRIDIUM 138             
1 43071U 17083B   25248.24230241  .00000092  00000+0  25711-4 0  9993
2 43071  86.3894  80.7982 0001608  94.5555 265.5825 14.34218270403290
